[{"OBJECT_NAME":"COSMOS 2489 (RODNIK-S 8)","OBJECT_ID":"2013-076B","EPOCH":"2026-03-06T20:40:30.532800","MEAN_MOTION":12.42876339,"ECCENTRICITY":0.0020474,"INCLINATION":82.4837,"RA_OF_ASC_NODE":233.7879,"ARG_OF_PERICENTER":319.9136,"MEAN_ANOMALY":40.0432,"EPHEMERIS_TYPE":0,"CLASSIFICATION_TYPE":"U","NORAD_CAT_ID":39484,"ELEMENT_SET_NO":999,"REV_AT_EPOCH":55323,"BSTAR":-0.00024872,"MEAN_MOTION_DOT":-2.5e-7,"MEAN_MOTION_DDOT":0},{"OBJECT_NAME":"COSMOS 2490 (RODNIK-S 9)","OBJECT_ID":"2013-076C","EPOCH":"2026-03-06T19:59:46.663872","MEAN_MOTION":12.42873651,"ECCENTRICITY":0.0020767,"INCLINATION":82.4786,"RA_OF_ASC_NODE":231.9166,"ARG_OF_PERICENTER":336.3857,"MEAN_ANOMALY":23.6267,"EPHEMERIS_TYPE":0,"CLASSIFICATION_TYPE":"U","NORAD_CAT_ID":39485,"ELEMENT_SET_NO":999,"REV_AT_EPOCH":55316,"BSTAR":-0.00096094,"MEAN_MOTION_DOT":-1.23e-6,"MEAN_MOTION_DDOT":0},{"OBJECT_NAME":"AIST-1 (RS41)","OBJECT_ID":"2013-078C","EPOCH":"2026-03-06T19:38:16.387008","MEAN_MOTION":14.95747714,"ECCENTRICITY":0.0015113,"INCLINATION":82.4195,"RA_OF_ASC_NODE":10.0215,"ARG_OF_PERICENTER":260.6709,"MEAN_ANOMALY":99.2804,"EPHEMERIS_TYPE":0,"CLASSIFICATION_TYPE":"U","NORAD_CAT_ID":39492,"ELEMENT_SET_NO":999,"REV_AT_EPOCH":65994,"BSTAR":0.00016842,"MEAN_MOTION_DOT":1.905e-5,"MEAN_MOTION_DDOT":0},{"OBJECT_NAME":"KAZEOSAT 1","OBJECT_ID":"2014-024A","EPOCH":"2026-03-06T19:35:54.818016","MEAN_MOTION":14.42033532,"ECCENTRICITY":0.0001058,"INCLINATION":98.3288,"RA_OF_ASC_NODE":140.7796,"ARG_OF_PERICENTER":82.3779,"MEAN_ANOMALY":277.7531,"EPHEMERIS_TYPE":0,"CLASSIFICATION_TYPE":"U","NORAD_CAT_ID":39731,"ELEMENT_SET_NO":999,"REV_AT_EPOCH":62380,"BSTAR":7.6315e-5,"MEAN_MOTION_DOT":2.08e-6,"MEAN_MOTION_DDOT":0},{"OBJECT_NAME":"COSMOS 2496 (RODNIK-S 10)","OBJECT_ID":"2014-028A","EPOCH":"2026-03-06T18:58:41.180160","MEAN_MOTION":12.42873936,"ECCENTRICITY":0.001868,"INCLINATION":82.4504,"RA_OF_ASC_NODE":172.855,"ARG_OF_PERICENTER":302.7753,"MEAN_ANOMALY":57.1527,"EPHEMERIS_TYPE":0,"CLASSIFICATION_TYPE":"U","NORAD_CAT_ID":39761,"ELEMENT_SET_NO":999,"REV_AT_EPOCH":53479,"BSTAR":9.6911e-5,"MEAN_MOTION_DOT":2.3e-7,"MEAN_MOTION_DDOT":0},{"OBJECT_NAME":"COSMOS 2497 (RODNIK-S 11)","OBJECT_ID":"2014-028B","EPOCH":"2026-03-06T20:20:38.976576","MEAN_MOTION":12.42874324,"ECCENTRICITY":0.0019237,"INCLINATION":82.4552,"RA_OF_ASC_NODE":174.4689,"ARG_OF_PERICENTER":297.4576,"MEAN_ANOMALY":62.4547,"EPHEMERIS_TYPE":0,"CLASSIFICATION_TYPE":"U","NORAD_CAT_ID":39762,"ELEMENT_SET_NO":999,"REV_AT_EPOCH":53480,"BSTAR":-0.00035618,"MEAN_MOTION_DOT":-4.0e-7,"MEAN_MOTION_DDOT":0},{"OBJECT_NAME":"COSMOS 2498 (RODNIK-S 12)","OBJECT_ID":"2014-028C","EPOCH":"2026-03-06T19:58:51.833568","MEAN_MOTION":12.42976035,"ECCENTRICITY":0.0019939,"INCLINATION":82.4513,"RA_OF_ASC_NODE":173.0107,"ARG_OF_PERICENTER":296.9133,"MEAN_ANOMALY":62.9909,"EPHEMERIS_TYPE":0,"CLASSIFICATION_TYPE":"U","NORAD_CAT_ID":39763,"ELEMENT_SET_NO":999,"REV_AT_EPOCH":53483,"BSTAR":-0.0010539,"MEAN_MOTION_DOT":-1.37e-6,"MEAN_MOTION_DDOT":0},{"OBJECT_NAME":"COSMOS 2499 (RS47)","OBJECT_ID":"2014-028E","EPOCH":"2026-03-06T19:15:11.317248","MEAN_MOTION":12.82900757,"ECCENTRICITY":0.023052,"INCLINATION":82.4526,"RA_OF_ASC_NODE":321.5321,"ARG_OF_PERICENTER":241.9454,"MEAN_ANOMALY":115.8167,"EPHEMERIS_TYPE":0,"CLASSIFICATION_TYPE":"U","NORAD_CAT_ID":39765,"ELEMENT_SET_NO":999,"REV_AT_EPOCH":55189,"BSTAR":1.472e-5,"MEAN_MOTION_DOT":1.3e-7,"MEAN_MOTION_DDOT":0},{"OBJECT_NAME":"HODOYOSHI-4","OBJECT_ID":"2014-033B","EPOCH":"2026-03-06T19:40:40.419264","MEAN_MOTION":14.87834144,"ECCENTRICITY":0.002227,"INCLINATION":97.5446,"RA_OF_ASC_NODE":255.5916,"ARG_OF_PERICENTER":286.3928,"MEAN_ANOMALY":73.4841,"EPHEMERIS_TYPE":0,"CLASSIFICATION_TYPE":"U","NORAD_CAT_ID":40011,"ELEMENT_SET_NO":999,"REV_AT_EPOCH":63358,"BSTAR":0.0003318,"MEAN_MOTION_DOT":2.994e-5,"MEAN_MOTION_DDOT":0},{"OBJECT_NAME":"UNISAT-6","OBJECT_ID":"2014-033C","EPOCH":"2026-03-06T15:31:07.616352","MEAN_MOTION":14.87611173,"ECCENTRICITY":0.00463094,"INCLINATION":97.7722,"RA_OF_ASC_NODE":220.2879,"ARG_OF_PERICENTER":47.7716,"MEAN_ANOMALY":312.7415,"EPHEMERIS_TYPE":0,"CLASSIFICATION_TYPE":"U","NORAD_CAT_ID":40012,"ELEMENT_SET_NO":999,"REV_AT_EPOCH":63091,"BSTAR":0.00054168276,"MEAN_MOTION_DOT":4.967e-5,"MEAN_MOTION_DDOT":0},{"OBJECT_NAME":"DEIMOS-2","OBJECT_ID":"2014-033D","EPOCH":"2026-03-06T19:33:03.313152","MEAN_MOTION":14.93397611,"ECCENTRICITY":0.000136,"INCLINATION":97.5982,"RA_OF_ASC_NODE":303.8308,"ARG_OF_PERICENTER":58.7847,"MEAN_ANOMALY":301.3506,"EPHEMERIS_TYPE":0,"CLASSIFICATION_TYPE":"U","NORAD_CAT_ID":40013,"ELEMENT_SET_NO":999,"REV_AT_EPOCH":62244,"BSTAR":0.00032232,"MEAN_MOTION_DOT":3.33e-5,"MEAN_MOTION_DDOT":0},{"OBJECT_NAME":"BUGSAT-1 (TITA)","OBJECT_ID":"2014-033E","EPOCH":"2026-03-06T20:43:17.882688","MEAN_MOTION":15.14447796,"ECCENTRICITY":0.0029053,"INCLINATION":98.043,"RA_OF_ASC_NODE":152.5272,"ARG_OF_PERICENTER":167.9197,"MEAN_ANOMALY":192.2736,"EPHEMERIS_TYPE":0,"CLASSIFICATION_TYPE":"U","NORAD_CAT_ID":40014,"ELEMENT_SET_NO":999,"REV_AT_EPOCH":64034,"BSTAR":0.00032122,"MEAN_MOTION_DOT":5.892e-5,"MEAN_MOTION_DDOT":0},{"OBJECT_NAME":"SAUDISAT 4","OBJECT_ID":"2014-033G","EPOCH":"2026-03-06T15:42:26.303904","MEAN_MOTION":14.79383543,"ECCENTRICITY":0.00459112,"INCLINATION":97.7406,"RA_OF_ASC_NODE":215.4349,"ARG_OF_PERICENTER":48.3897,"MEAN_ANOMALY":312.1234,"EPHEMERIS_TYPE":0,"CLASSIFICATION_TYPE":"U","NORAD_CAT_ID":40016,"ELEMENT_SET_NO":999,"REV_AT_EPOCH":63091,"BSTAR":0.00016429601,"MEAN_MOTION_DOT":1.195e-5,"MEAN_MOTION_DDOT":0},{"OBJECT_NAME":"APRIZESAT 9","OBJECT_ID":"2014-033J","EPOCH":"2026-03-06T08:59:00.314880","MEAN_MOTION":14.7406497,"ECCENTRICITY":0.00666108,"INCLINATION":97.8875,"RA_OF_ASC_NODE":201.1944,"ARG_OF_PERICENTER":169.7785,"MEAN_ANOMALY":190.4796,"EPHEMERIS_TYPE":0,"CLASSIFICATION_TYPE":"U","NORAD_CAT_ID":40018,"ELEMENT_SET_NO":999,"REV_AT_EPOCH":62841,"BSTAR":0.00022692025,"MEAN_MOTION_DOT":1.495e-5,"MEAN_MOTION_DDOT":0},{"OBJECT_NAME":"BRITE-CA1 (TORONTO)","OBJECT_ID":"2014-033L","EPOCH":"2026-03-06T18:35:53.947680","MEAN_MOTION":14.7245363,"ECCENTRICITY":0.0077781,"INCLINATION":97.9562,"RA_OF_ASC_NODE":196.7031,"ARG_OF_PERICENTER":244.3708,"MEAN_ANOMALY":114.9449,"EPHEMERIS_TYPE":0,"CLASSIFICATION_TYPE":"U","NORAD_CAT_ID":40020,"ELEMENT_SET_NO":999,"REV_AT_EPOCH":62714,"BSTAR":0.00029466,"MEAN_MOTION_DOT":1.906e-5,"MEAN_MOTION_DDOT":0},{"OBJECT_NAME":"DUCHIFAT-1","OBJECT_ID":"2014-033M","EPOCH":"2026-03-06T02:00:20.118816","MEAN_MOTION":15.49284424,"ECCENTRICITY":0.000646,"INCLINATION":98.0634,"RA_OF_ASC_NODE":111.0868,"ARG_OF_PERICENTER":95.0854,"MEAN_ANOMALY":265.1132,"EPHEMERIS_TYPE":0,"CLASSIFICATION_TYPE":"U","NORAD_CAT_ID":40021,"ELEMENT_SET_NO":999,"REV_AT_EPOCH":63971,"BSTAR":0.00101087,"MEAN_MOTION_DOT":0.00055499,"MEAN_MOTION_DDOT":0}]
